0 ARIANE 44LP DEB
1 26794U 91015L   13281.63896186 -.00000271  00000-0 -19969-2 0  4753
2 26794 006.9833 191.9579 6663144 321.0951 006.3776 02.86717450145471
0 ARIANE 44LP DEB
1 26794U 91015L   13281.94781938 -.00000326  00000-0 -26716-2 0  4765
2 26794 006.9836 191.8020 6658415 321.4204 325.1175 02.86716528145474
0 ARIANE 44LP DEB
1 26794U 91015L   13285.83282155 -.00000308  00000-0 -23980-2 0  4786
2 26794 006.9829 189.8118 6656894 325.3240 015.0765 02.86711217145596
0 ARIANE 44LP DEB
1 26794U 91015L   13286.78364060 -.00000213  00000-0 -14950-2 0  4790
2 26794 006.9835 189.3234 6656823 326.2782 276.4753 02.86712835145610
0 ARIANE 44LP DEB
1 26794U 91015L   13287.08342076 -.00000265  00000-0 -21000-2 0  4800
2 26794 006.9831 189.1688 6656832 326.5797 225.8967 02.86714409145621
0 ARIANE 44LP DEB
1 26794U 91015L   13293.84435217 -.00000328  00000-0 -27509-2 0  4812
2 26794 006.9924 185.7091 6657994 333.3310 004.2177 02.86709397145825
